0 BREEZE M R/B
1 36517U 10016B   13281.24695181 -.00000113  00000-0  10000-3 0  3120
2 36517 002.7989 062.7278 0715285 052.6420 313.8026 01.20449465 15125
0 BREEZE M R/B
1 36517U 10016B   13282.90774372  .00000038  00000-0  10000-3 0  3141
2 36517 002.8032 062.8945 0714944 052.5359 313.8954 01.20446442 15142
0 BREEZE M R/B
1 36517U 10016B   13287.05820040 -.00000140  00000-0  10000-3 0  3141
2 36517 002.8082 062.6530 0715162 052.8586 313.6042 01.20449404 15195
0 BREEZE M R/B
1 36517U 10016B   13289.54871100 -.00000147  00000-0  10000-3 0  3158
2 36517 002.8124 062.6385 0715087 052.9343 313.5047 01.20449350 15226
0 BREEZE M R/B
1 36517U 10016B   13292.03906529 -.00000150  00000-0  10000-3 0  3165
2 36517 002.8162 062.6076 0714867 053.0413 313.3228 01.20449323 15252
0 BREEZE M R/B
1 36517U 10016B   13294.52946288 -.00000148  00000-0  10000-3 0  3175
2 36517 002.8208 062.5859 0714841 053.1254 313.1777 01.20449328 15282
